<?xml version="1.0" encoding="UTF-8"?>
<kml xmlns="http://www.opengis.net/kml/2.2">
  <Document>
    <name>Single folder</name>
    <Folder>
      <name>Graz</name>
      <Placemark>
        <name><![CDATA[Graz: Murinsel]]></name>
        <styleUrl>#icon-1899-0288D1-labelson</styleUrl>
        <ExtendedData>
          <Data name="gx_media_links">
            <value><![CDATA[https://mymaps.usercontent.google.com/hostedimage/m/*/DDD?fife=s16383]]></value>
          </Data>
        </ExtendedData>
        <Point>
          <coordinates>15.4342,47.0739,0</coordinates>
        </Point>
      </Placemark>
    </Folder>
  </Document>
</kml>
