{
  "type": "FeatureCollection",
  "features": [
    {
      "type": "Feature",
      "geometry": {
        "type": "Point",
        "coordinates": [
          20.4461733,
          44.8151886
        ]
      },
      "properties": {
        "id": "big-bank-6b49ed",
        "name": "Big Bank",
        "status": "active",
        "photos": [
          "spots/belgrade/big-bank-6b49ed-931c0abd.webp",
          "spots/belgrade/big-bank-6b49ed-fa7e265c.webp"
        ]
      }
    },
    {
      "type": "Feature",
      "geometry": {
        "type": "Point",
        "coordinates": [
          20.468557,
          44.7980122
        ]
      },
      "properties": {
        "id": "7-stair-and-curbs-3fb721",
        "name": "7 Stair and Curbs",
        "status": "active",
        "photos": [
          "spots/belgrade/7-stair-and-curbs-3fb721-5b7c6885.webp",
          "spots/belgrade/7-stair-and-curbs-3fb721-b31ffcc2.webp",
          "spots/belgrade/7-stair-and-curbs-3fb721-01e899ad.webp",
          "spots/belgrade/7-stair-and-curbs-3fb721-ffd74e78.webp",
          "spots/belgrade/7-stair-and-curbs-3fb721-8ba565e0.webp",
          "spots/belgrade/7-stair-and-curbs-3fb721-0e36fb2c.webp"
        ]
      }
    },
    {
      "type": "Feature",
      "geometry": {
        "type": "Point",
        "coordinates": [
          20.4568104,
          44.8083316
        ]
      },
      "properties": {
        "id": "curbs-60a7d6",
        "name": "Curbs",
        "status": "active",
        "photos": [
          "spots/belgrade/curbs-60a7d6-ae180dbf.webp",
          "spots/belgrade/curbs-60a7d6-3ccb51c0.webp"
        ]
      }
    },
    {
      "type": "Feature",
      "geometry": {
        "type": "Point",
        "coordinates": [
          19.8431345,
          45.2548245
        ]
      },
      "properties": {
        "id": "novi-sad-stairs-and-big-double-set-a4ca90",
        "name": "Novi Sad: Stairs and Big Double Set",
        "status": "active",
        "photos": [
          "spots/belgrade/novi-sad-stairs-and-big-double-set-a4ca90-4dc02041.webp",
          "spots/belgrade/novi-sad-stairs-and-big-double-set-a4ca90-504e20f6.webp",
          "spots/belgrade/novi-sad-stairs-and-big-double-set-a4ca90-4fa49085.webp",
          "spots/belgrade/novi-sad-stairs-and-big-double-set-a4ca90-90ad7041.webp"
        ]
      }
    },
    {
      "type": "Feature",
      "geometry": {
        "type": "Point",
        "coordinates": [
          20.4311446,
          44.8067345
        ]
      },
      "properties": {
        "id": "crusty-rail-531396",
        "name": "Crusty Rail",
        "status": "active",
        "photos": [
          "spots/belgrade/crusty-rail-531396-f9c3e952.webp",
          "spots/belgrade/crusty-rail-531396-e4e2c270.webp"
        ]
      }
    },
    {
      "type": "Feature",
      "geometry": {
        "type": "Point",
        "coordinates": [
          20.424144,
          44.8071334
        ]
      },
      "properties": {
        "id": "vulcano-a26f3a",
        "name": "Vulcano",
        "status": "active",
        "photos": [
          "spots/belgrade/vulcano-a26f3a-77c35689.webp",
          "spots/belgrade/vulcano-a26f3a-121edb60.webp"
        ]
      }
    }
  ]
}
