{
  "type": "FeatureCollection",
  "features": [
    {
      "type": "Feature",
      "geometry": {
        "type": "Point",
        "coordinates": [
          14.415994,
          50.094926
        ]
      },
      "properties": {
        "id": "stalin-plaza-2a8189",
        "name": "Stalin Plaza",
        "status": "active",
        "photos": []
      }
    },
    {
      "type": "Feature",
      "geometry": {
        "type": "Point",
        "coordinates": [
          14.43912,
          50.09078
        ]
      },
      "properties": {
        "id": "perfect-8-stair-8688f3",
        "name": "Perfect 8 Stair",
        "status": "active",
        "photos": []
      }
    },
    {
      "type": "Feature",
      "geometry": {
        "type": "Point",
        "coordinates": [
          14.413637,
          50.081315
        ]
      },
      "properties": {
        "id": "perfect-8-stair-57b917",
        "name": "Perfect 8 Stair",
        "status": "active",
        "photos": []
      }
    },
    {
      "type": "Feature",
      "geometry": {
        "type": "Point",
        "coordinates": [
          14.414506,
          50.081099
        ]
      },
      "properties": {
        "id": "curbs-836bfd",
        "name": "Curbs",
        "status": "active",
        "photos": []
      }
    }
  ]
}
