{
  "type": "FeatureCollection",
  "features": [
    {
      "type": "Feature",
      "geometry": {
        "type": "Point",
        "coordinates": [
          18.3425186,
          43.8326209
        ]
      },
      "properties": {
        "id": "curbs-9b74f4",
        "name": "Curbs",
        "status": "active",
        "photos": [
          "spots/sarajevo/curbs-9b74f4-6d8f787b.webp",
          "spots/sarajevo/curbs-9b74f4-392e4b25.webp",
          "spots/sarajevo/curbs-9b74f4-6f0e3974.webp",
          "spots/sarajevo/curbs-9b74f4-47cf4d8e.webp",
          "spots/sarajevo/curbs-9b74f4-40ce0308.webp"
        ]
      }
    },
    {
      "type": "Feature",
      "geometry": {
        "type": "Point",
        "coordinates": [
          18.4176905,
          43.8560821
        ]
      },
      "properties": {
        "id": "art-academy-curbs-5ab6b8",
        "name": "Art Academy Curbs",
        "status": "active",
        "photos": [
          "spots/sarajevo/art-academy-curbs-5ab6b8-72fe87a5.webp",
          "spots/sarajevo/art-academy-curbs-5ab6b8-5162041f.webp"
        ]
      }
    },
    {
      "type": "Feature",
      "geometry": {
        "type": "Point",
        "coordinates": [
          18.4139237,
          43.8550828
        ]
      },
      "properties": {
        "id": "plaza-b274ae",
        "name": "Plaza",
        "status": "active",
        "photos": [
          "spots/sarajevo/plaza-b274ae-c60f116b.webp",
          "spots/sarajevo/plaza-b274ae-becb4403.webp",
          "spots/sarajevo/plaza-b274ae-9eaae309.webp",
          "spots/sarajevo/plaza-b274ae-a975e815.webp"
        ]
      }
    },
    {
      "type": "Feature",
      "geometry": {
        "type": "Point",
        "coordinates": [
          18.4141708,
          43.853915
        ]
      },
      "properties": {
        "id": "rooftop-miniramp-beb4e4",
        "name": "Rooftop Miniramp",
        "status": "active",
        "photos": [
          "spots/sarajevo/rooftop-miniramp-beb4e4-ca7971e0.webp",
          "spots/sarajevo/rooftop-miniramp-beb4e4-457093bb.webp"
        ]
      }
    }
  ]
}
